{
  "type": "FeatureCollection",
  "features": [
    {
      "type": "Feature",
      "properties": {
        "norad_id": 66669,
        "name": "TRANSPORTER-15D",
        "group": "last-30-days",
        "lat": 7.670445928776716,
        "lon": -109.42942546551902,
        "alt_km": 431.0206274586135,
        "timestamp": "2025-12-23T22:42:31.699931+00:00",
        "meta_object_name": "TRANSPORTER-15D",
        "meta_object_id": "2025-276D",
        "meta_epoch": "2025-12-21T02:39:18.210816",
        "meta_mean_motion": 15.34134881,
        "meta_eccentricity": 0.00748198,
        "meta_inclination": 97.4314,
        "meta_ra_of_asc_node": 66.7079,
        "meta_arg_of_pericenter": 232.3102,
        "meta_mean_anomaly": 127.1341,
        "meta_ephemeris_type": 0,
        "meta_classification_type": "U",
        "meta_norad_cat_id": 66669,
        "meta_element_set_no": 999,
        "meta_rev_at_epoch": 339,
        "meta_bstar": 0.0027830351,
        "meta_mean_motion_dot": 0.00101698,
        "meta_mean_motion_ddot": 0,
        "tle_line1": "1 66669U 25276D   25355.11062744  .00101698  00000+0  27830-2 0  9996",
        "tle_line2": "2 66669  97.4314  66.7079 0074819 232.3102 127.1341 15.34134881  3392"
      },
      "geometry": {
        "type": "Point",
        "coordinates": [
          -109.42942546551902,
          7.670445928776716
        ]
      }
    },
    {
      "type": "Feature",
      "properties": {
        "norad_id": 66670,
        "name": "HUNITY",
        "group": "last-30-days",
        "lat": -77.08635196505107,
        "lon": 104.15633248245257,
        "alt_km": 526.0195695224593,
        "timestamp": "2025-12-23T22:42:31.699941+00:00",
        "meta_object_name": "HUNITY",
        "meta_object_id": "2025-276E",
        "meta_epoch": "2025-12-23T04:02:01.210848",
        "meta_mean_motion": 15.15228157,
        "meta_eccentricity": 0.00122151,
        "meta_inclination": 97.4304,
        "meta_ra_of_asc_node": 68.7015,
        "meta_arg_of_pericenter": 342.3934,
        "meta_mean_anomaly": 17.6873,
        "meta_ephemeris_type": 0,
        "meta_classification_type": "U",
        "meta_norad_cat_id": 66670,
        "meta_element_set_no": 999,
        "meta_rev_at_epoch": 370,
        "meta_bstar": -0.029821769,
        "meta_mean_motion_dot": -0.00528309,
        "meta_mean_motion_ddot": 0,
        "tle_line1": "1 66670U 25276E   25357.16806957 -.00528309  00000+0 -29822-1 0  9993",
        "tle_line2": "2 66670  97.4304  68.7015 0012215 342.3934  17.6873 15.15228157  3709"
      },
      "geometry": {
        "type": "Point",
        "coordinates": [
          104.15633248245257,
          -77.08635196505107
        ]
      }
    },
    {
      "type": "Feature",
      "properties": {
        "norad_id": 66671,
        "name": "TRANSPORTER-15F",
        "group": "last-30-days",
        "lat": -56.902922942912895,
        "lon": 81.06940620610757,
        "alt_km": 519.5199974462757,
        "timestamp": "2025-12-23T22:42:31.699952+00:00",
        "meta_object_name": "TRANSPORTER-15F",
        "meta_object_id": "2025-276F",
        "meta_epoch": "2025-12-23T03:58:01.873344",
        "meta_mean_motion": 15.1711674,
        "meta_eccentricity": 0.00051662,
        "meta_inclination": 97.442,
        "meta_ra_of_asc_node": 68.7342,
        "meta_arg_of_pericenter": 251.0148,
        "meta_mean_anomaly": 109.0525,
        "meta_ephemeris_type": 0,
        "meta_classification_type": "U",
        "meta_norad_cat_id": 66671,
        "meta_element_set_no": 999,
        "meta_rev_at_epoch": 370,
        "meta_bstar": 0.00070191475,
        "meta_mean_motion_dot": 0.00013869,
        "meta_mean_motion_ddot": 0,
        "tle_line1": "1 66671U 25276F   25357.16529946  .00013869  00000+0  70191-3 0  9999",
        "tle_line2": "2 66671  97.4420  68.7342 0005166 251.0148 109.0525 15.17116740  3708"
      },
      "geometry": {
        "type": "Point",
        "coordinates": [
          81.06940620610757,
          -56.902922942912895
        ]
      }
    },
    {
      "type": "Feature",
      "properties": {
        "norad_id": 66672,
        "name": "TRANSPORTER-15G",
        "group": "last-30-days",
        "lat": -81.44051294074755,
        "lon": 129.7224824017179,
        "alt_km": 520.0637467444449,
        "timestamp": "2025-12-23T22:42:31.699962+00:00",
        "meta_object_name": "TRANSPORTER-15G",
        "meta_object_id": "2025-276G",
        "meta_epoch": "2025-12-23T04:05:05.431200",
        "meta_mean_motion": 15.166258,
        "meta_eccentricity": 0.00054715,
        "meta_inclination": 97.4392,
        "meta_ra_of_asc_node": 68.7197,
        "meta_arg_of_pericenter": 248.7666,
        "meta_mean_anomaly": 111.2983,
        "meta_ephemeris_type": 0,
        "meta_classification_type": "U",
        "meta_norad_cat_id": 66672,
        "meta_element_set_no": 999,
        "meta_rev_at_epoch": 370,
        "meta_bstar": 0.00026756787,
        "meta_mean_motion_dot": 5.166e-05,
        "meta_mean_motion_ddot": 0,
        "tle_line1": "1 66672U 25276G   25357.17020175  .00005166  00000+0  26757-3 0  9991",
        "tle_line2": "2 66672  97.4392  68.7197 0005471 248.7666 111.2983 15.16625800  3706"
      },
      "geometry": {
        "type": "Point",
        "coordinates": [
          129.7224824017179,
          -81.44051294074755
        ]
      }
    },
    {
      "type": "Feature",
      "properties": {
        "norad_id": 66673,
        "name": "TRANSPORTER-15H",
        "group": "last-30-days",
        "lat": -61.98399102022324,
        "lon": 83.68978692044496,
        "alt_km": 518.1544388633984,
        "timestamp": "2025-12-23T22:42:31.699974+00:00",
        "meta_object_name": "TRANSPORTER-15H",
        "meta_object_id": "2025-276H",
        "meta_epoch": "2025-12-23T03:59:26.324160",
        "meta_mean_motion": 15.17144936,
        "meta_eccentricity": 0.00059082,
        "meta_inclination": 97.4361,
        "meta_ra_of_asc_node": 68.7146,
        "meta_arg_of_pericenter": 267.1416,
        "meta_mean_anomaly": 92.9142,
        "meta_ephemeris_type": 0,
        "meta_classification_type": "U",
        "meta_norad_cat_id": 66673,
        "meta_element_set_no": 999,
        "meta_rev_at_epoch": 370,
        "meta_bstar": 0.0010336989,
        "meta_mean_motion_dot": 0.00020493,
        "meta_mean_motion_ddot": 0,
        "tle_line1": "1 66673U 25276H   25357.16627690  .00020493  00000+0  10337-2 0  9992",
        "tle_line2": "2 66673  97.4361  68.7146 0005908 267.1416  92.9142 15.17144936  3709"
      },
      "geometry": {
        "type": "Point",
        "coordinates": [
          83.68978692044496,
          -61.98399102022324
        ]
      }
    },
    {
      "type": "Feature",
      "properties": {
        "norad_id": 66674,
        "name": "TRANSPORTER-15J",
        "group": "last-30-days",
        "lat": -74.082308512648,
        "lon": -137.79407233174555,
        "alt_km": 534.1021399826986,
        "timestamp": "2025-12-23T22:42:31.699987+00:00",
        "meta_object_name": "TRANSPORTER-15J",
        "meta_object_id": "2025-276J",
        "meta_epoch": "2025-12-21T10:53:16.478880",
        "meta_mean_motion": 15.15191397,
        "meta_eccentricity": 0.00065005,
        "meta_inclination": 97.4372,
        "meta_ra_of_asc_node": 67.0325,
        "meta_arg_of_pericenter": 333.1103,
        "meta_mean_anomaly": 26.9792,
        "meta_ephemeris_type": 0,
        "meta_classification_type": "U",
        "meta_norad_cat_id": 66674,
        "meta_element_set_no": 999,
        "meta_rev_at_epoch": 344,
        "meta_bstar": -0.028180021,
        "meta_mean_motion_dot": -0.00494676,
        "meta_mean_motion_ddot": 0,
        "tle_line1": "1 66674U 25276J   25355.45366295 -.00494676  00000+0 -28180-1 0  9998",
        "tle_line2": "2 66674  97.4372  67.0325 0006500 333.1103  26.9792 15.15191397  3449"
      },
      "geometry": {
        "type": "Point",
        "coordinates": [
          -137.79407233174555,
          -74.082308512648
        ]
      }
    },
    {
      "type": "Feature",
      "properties": {
        "norad_id": 66675,
        "name": "TRANSPORTER-15K",
        "group": "last-30-days",
        "lat": -62.50849936241881,
        "lon": 84.03006706599312,
        "alt_km": 519.5258134095966,
        "timestamp": "2025-12-23T22:42:31.699997+00:00",
        "meta_object_name": "TRANSPORTER-15K",
        "meta_object_id": "2025-276K",
        "meta_epoch": "2025-12-23T03:59:29.862240",
        "meta_mean_motion": 15.17023536,
        "meta_eccentricity": 0.00049563,
        "meta_inclination": 97.4387,
        "meta_ra_of_asc_node": 68.7234,
        "meta_arg_of_pericenter": 254.6657,
        "meta_mean_anomaly": 105.4029,
        "meta_ephemeris_type": 0,
        "meta_classification_type": "U",
        "meta_norad_cat_id": 66675,
        "meta_element_set_no": 999,
        "meta_rev_at_epoch": 370,
        "meta_bstar": 0.0010303356,
        "meta_mean_motion_dot": 0.00020352,
        "meta_mean_motion_ddot": 0,
        "tle_line1": "1 66675U 25276K   25357.16631785  .00020352  00000+0  10303-2 0  9991",
        "tle_line2": "2 66675  97.4387  68.7234 0004956 254.6657 105.4029 15.17023536  3703"
      },
      "geometry": {
        "type": "Point",
        "coordinates": [
          84.03006706599312,
          -62.50849936241881
        ]
      }
    }
  ]
}